*******************************************************************************
Ephemeris / WWW_USER Mon Mar 24 06:40:42 2025 Pasadena, USA      / Horizons    
*******************************************************************************
Target body name: (2017 SN16)                     {source: JPL#20}
Center body name: Earth (399)                     {source: DE441}
Center-site name: Gemini South Obs., Cerro Pachon
*******************************************************************************
Start time      : A.D. 2018-Sep-07 22:39:00.0000 UT      
Stop  time      : A.D. 2018-Sep-08 10:41:00.0000 UT      
Step-size       : 1 minutes
*******************************************************************************
Target pole/equ : undefined
Target radii    : undefined                                                    
Center geodetic : 289.2634, -30.2406227, 2.71233  {E-lon(deg),Lat(deg),Alt(km)}
Center cylindric: 289.2634,5517.21435,-3194.81213 {E-lon(deg),Dxy(km),Dz(km)}
Center pole/equ : ITRF93                          {East-longitude positive}
Center radii    : 6378.137, 6378.137, 6356.752 km {Equator_a, b, pole_c}       
Target primary  : Sun
Vis. interferer : MOON (R_eq= 1737.400) km        {source: DE441}
Rel. light bend : Sun                             {source: DE441}
Rel. lght bnd GM: 1.3271E+11 km^3/s^2                                          
Small-body perts: Yes                             {source: SB441-N16}
Atmos refraction: NO (AIRLESS)
RA format       : HMS
Time format     : CAL 
Calendar mode   : Mixed Julian/Gregorian
RTS-only print  : NO       
EOP file        : eop.250321.p250617                                           
EOP coverage    : DATA-BASED 1962-JAN-20 TO 2025-MAR-21. PREDICTS-> 2025-JUN-16
Units conversion: 1 au= 149597870.700 km, c= 299792.458 km/s, 1 day= 86400.0 s 
Table cut-offs 1: Elevation (-90.0deg=NO ),Airmass (>38.000=NO), Daylight (YES)
Table cut-offs 2: Solar elongation (  0.0,180.0=NO ),Local Hour Angle( 0.0=NO )
Table cut-offs 3: RA/DEC angular rate (     0.0=NO )                           
*******************************************************************************
Initial IAU76/J2000 heliocentric ecliptic osculating elements (au, days, deg.):
  EPOCH=  2458305.5 ! 2018-Jul-06.00 (TDB)         Residual RMS= .23751        
   EC= .1454884975659386   QR= .8682464985612274   TP= 2458145.5722438502      
   OM= 2.759719470837934   W=  137.1017088998531   IN= 13.38264682844635       
  Equivalent ICRF heliocentric cartesian coordinates (au, au/d):
   X= 5.756755401261899E-01  Y=-7.953424559592890E-01  Z=-6.031561894536019E-01
  VX= 1.332076113263395E-02 VY= 5.454663564585547E-03 VZ= 3.896229736425836E-03
Asteroid physical parameters (km, seconds, rotational period in hours):        
   GM= n.a.                RAD= n.a.               ROTPER= n.a.                
   H= 23.34                G= .150                 B-V= n.a.                   
                           ALBEDO= n.a.            STYP= n.a.                  
*******************************************************************************
 Date__(UT)__HR:MN     R.A._________(ICRF)_________DEC
******************************************************
$$SOE
 2018-Sep-07 22:39 C   01 01 45.771892 -23 14 38.89091
 2018-Sep-07 22:40 C   01 01 45.604362 -23 14 37.99123
 2018-Sep-07 22:41 C   01 01 45.436767 -23 14 37.09167
 2018-Sep-07 22:42 C   01 01 45.269107 -23 14 36.19224
 2018-Sep-07 22:43 C   01 01 45.101381 -23 14 35.29293
 2018-Sep-07 22:44 C   01 01 44.933589 -23 14 34.39375
 2018-Sep-07 22:45 C   01 01 44.765732 -23 14 33.49468
 2018-Sep-07 22:46 C   01 01 44.597808 -23 14 32.59573
 2018-Sep-07 22:47 C   01 01 44.429818 -23 14 31.69690
 2018-Sep-07 22:48 C   01 01 44.261762 -23 14 30.79818
 2018-Sep-07 22:49 C   01 01 44.093640 -23 14 29.89958
 2018-Sep-07 22:50 C   01 01 43.925451 -23 14 29.00110
 2018-Sep-07 22:51 C   01 01 43.757195 -23 14 28.10272
 2018-Sep-07 22:52 C   01 01 43.588873 -23 14 27.20445
 2018-Sep-07 22:53 C   01 01 43.420484 -23 14 26.30630
 2018-Sep-07 22:54 C   01 01 43.252027 -23 14 25.40825
 2018-Sep-07 22:55 C   01 01 43.083503 -23 14 24.51030
 2018-Sep-07 22:56 N   01 01 42.914912 -23 14 23.61246
 2018-Sep-07 22:57 N   01 01 42.746253 -23 14 22.71473
 2018-Sep-07 22:58 N   01 01 42.577527 -23 14 21.81709
 2018-Sep-07 22:59 N   01 01 42.408733 -23 14 20.91956
 2018-Sep-07 23:00 N   01 01 42.239871 -23 14 20.02212
 2018-Sep-07 23:01 N   01 01 42.070941 -23 14 19.12478
 2018-Sep-07 23:02 N   01 01 41.901943 -23 14 18.22754
 2018-Sep-07 23:03 N   01 01 41.732877 -23 14 17.33039
 2018-Sep-07 23:04 N   01 01 41.563742 -23 14 16.43333
 2018-Sep-07 23:05 N   01 01 41.394539 -23 14 15.53636
 2018-Sep-07 23:06 N   01 01 41.225267 -23 14 14.63949
 2018-Sep-07 23:07 N   01 01 41.055927 -23 14 13.74270
 2018-Sep-07 23:08 N   01 01 40.886517 -23 14 12.84600
 2018-Sep-07 23:09 N   01 01 40.717039 -23 14 11.94939
 2018-Sep-07 23:10 N   01 01 40.547491 -23 14 11.05285
 2018-Sep-07 23:11 N   01 01 40.377875 -23 14 10.15641
 2018-Sep-07 23:12 N   01 01 40.208189 -23 14 09.26004
 2018-Sep-07 23:13 N   01 01 40.038433 -23 14 08.36375
 2018-Sep-07 23:14 N   01 01 39.868608 -23 14 07.46754
 2018-Sep-07 23:15 N   01 01 39.698714 -23 14 06.57140
 2018-Sep-07 23:16 N   01 01 39.528750 -23 14 05.67534
 2018-Sep-07 23:17 N   01 01 39.358715 -23 14 04.77936
 2018-Sep-07 23:18 N   01 01 39.188611 -23 14 03.88344
 2018-Sep-07 23:19 N   01 01 39.018437 -23 14 02.98760
 2018-Sep-07 23:20 N   01 01 38.848193 -23 14 02.09182
 2018-Sep-07 23:21 N   01 01 38.677878 -23 14 01.19612
 2018-Sep-07 23:22 N   01 01 38.507493 -23 14 00.30047
 2018-Sep-07 23:23 A   01 01 38.337037 -23 13 59.40490
 2018-Sep-07 23:24 A   01 01 38.166511 -23 13 58.50938
 2018-Sep-07 23:25 A   01 01 37.995914 -23 13 57.61393
 2018-Sep-07 23:26 A   01 01 37.825247 -23 13 56.71853
 2018-Sep-07 23:27 A   01 01 37.654508 -23 13 55.82320
 2018-Sep-07 23:28 A   01 01 37.483699 -23 13 54.92792
 2018-Sep-07 23:29 Ar  01 01 37.312819 -23 13 54.03270
 2018-Sep-07 23:30 A   01 01 37.141867 -23 13 53.13752
 2018-Sep-07 23:31 A   01 01 36.970844 -23 13 52.24241
 2018-Sep-07 23:32 A   01 01 36.799750 -23 13 51.34734
 2018-Sep-07 23:33 A   01 01 36.628585 -23 13 50.45232
 2018-Sep-07 23:34 A   01 01 36.457348 -23 13 49.55735
 2018-Sep-07 23:35 A   01 01 36.286039 -23 13 48.66242
 2018-Sep-07 23:36 A   01 01 36.114659 -23 13 47.76754
 2018-Sep-07 23:37 A   01 01 35.943207 -23 13 46.87270
 2018-Sep-07 23:38 A   01 01 35.771683 -23 13 45.97791
 2018-Sep-07 23:39 A   01 01 35.600087 -23 13 45.08315
 2018-Sep-07 23:40 A   01 01 35.428420 -23 13 44.18843
 2018-Sep-07 23:41 A   01 01 35.256680 -23 13 43.29375
 2018-Sep-07 23:42 A   01 01 35.084868 -23 13 42.39910
 2018-Sep-07 23:43 A   01 01 34.912984 -23 13 41.50448
 2018-Sep-07 23:44 A   01 01 34.741028 -23 13 40.60990
 2018-Sep-07 23:45 A   01 01 34.568999 -23 13 39.71535
 2018-Sep-07 23:46 A   01 01 34.396898 -23 13 38.82083
 2018-Sep-07 23:47 A   01 01 34.224724 -23 13 37.92633
 2018-Sep-07 23:48 A   01 01 34.052478 -23 13 37.03186
 2018-Sep-07 23:49 A   01 01 33.880159 -23 13 36.13741
 2018-Sep-07 23:50 A   01 01 33.707768 -23 13 35.24299
 2018-Sep-07 23:51     01 01 33.535304 -23 13 34.34859
 2018-Sep-07 23:52     01 01 33.362767 -23 13 33.45420
 2018-Sep-07 23:53     01 01 33.190157 -23 13 32.55984
 2018-Sep-07 23:54     01 01 33.017474 -23 13 31.66549
 2018-Sep-07 23:55     01 01 32.844718 -23 13 30.77115
 2018-Sep-07 23:56     01 01 32.671889 -23 13 29.87683
 2018-Sep-07 23:57     01 01 32.498987 -23 13 28.98252
 2018-Sep-07 23:58     01 01 32.326012 -23 13 28.08822
 2018-Sep-07 23:59     01 01 32.152963 -23 13 27.19392
 2018-Sep-08 00:00     01 01 31.979841 -23 13 26.29964
 2018-Sep-08 00:01     01 01 31.806646 -23 13 25.40536
 2018-Sep-08 00:02     01 01 31.633378 -23 13 24.51108
 2018-Sep-08 00:03     01 01 31.460036 -23 13 23.61680
 2018-Sep-08 00:04     01 01 31.286621 -23 13 22.72253
 2018-Sep-08 00:05     01 01 31.113132 -23 13 21.82825
 2018-Sep-08 00:06     01 01 30.939569 -23 13 20.93397
 2018-Sep-08 00:07     01 01 30.765933 -23 13 20.03969
 2018-Sep-08 00:08     01 01 30.592223 -23 13 19.14540
 2018-Sep-08 00:09     01 01 30.418440 -23 13 18.25110
 2018-Sep-08 00:10     01 01 30.244583 -23 13 17.35680
 2018-Sep-08 00:11     01 01 30.070652 -23 13 16.46248
 2018-Sep-08 00:12     01 01 29.896647 -23 13 15.56815
 2018-Sep-08 00:13     01 01 29.722568 -23 13 14.67380
 2018-Sep-08 00:14     01 01 29.548416 -23 13 13.77944
 2018-Sep-08 00:15     01 01 29.374189 -23 13 12.88507
 2018-Sep-08 00:16     01 01 29.199889 -23 13 11.99067
 2018-Sep-08 00:17     01 01 29.025514 -23 13 11.09626
 2018-Sep-08 00:18     01 01 28.851066 -23 13 10.20182
 2018-Sep-08 00:19     01 01 28.676544 -23 13 09.30736
 2018-Sep-08 00:20     01 01 28.501947 -23 13 08.41287
 2018-Sep-08 00:21     01 01 28.327276 -23 13 07.51835
 2018-Sep-08 00:22     01 01 28.152532 -23 13 06.62381
 2018-Sep-08 00:23     01 01 27.977713 -23 13 05.72924
 2018-Sep-08 00:24     01 01 27.802820 -23 13 04.83463
 2018-Sep-08 00:25     01 01 27.627853 -23 13 03.94000
 2018-Sep-08 00:26     01 01 27.452811 -23 13 03.04532
 2018-Sep-08 00:27     01 01 27.277695 -23 13 02.15061
 2018-Sep-08 00:28     01 01 27.102505 -23 13 01.25587
 2018-Sep-08 00:29     01 01 26.927241 -23 13 00.36108
 2018-Sep-08 00:30     01 01 26.751903 -23 12 59.46625
 2018-Sep-08 00:31     01 01 26.576490 -23 12 58.57138
 2018-Sep-08 00:32     01 01 26.401003 -23 12 57.67647
 2018-Sep-08 00:33     01 01 26.225442 -23 12 56.78150
 2018-Sep-08 00:34     01 01 26.049806 -23 12 55.88649
 2018-Sep-08 00:35     01 01 25.874096 -23 12 54.99143
 2018-Sep-08 00:36     01 01 25.698312 -23 12 54.09632
 2018-Sep-08 00:37     01 01 25.522453 -23 12 53.20116
 2018-Sep-08 00:38     01 01 25.346520 -23 12 52.30594
 2018-Sep-08 00:39     01 01 25.170513 -23 12 51.41067
 2018-Sep-08 00:40     01 01 24.994431 -23 12 50.51534
 2018-Sep-08 00:41     01 01 24.818275 -23 12 49.61995
